$$SOE
2461302.500000000, A.D. 2026-Sep-19 00:00:00.0000, -4.287822029760620E+08, -1.081124920369518E+08, 1.534172064646239E+08,
2461309.500000000, A.D. 2026-Sep-26 00:00:00.0000, -4.251912738438484E+08, -1.168453970540760E+08, 1.561751736665836E+08,
2461316.500000000, A.D. 2026-Oct-03 00:00:00.0000, -4.213987017762735E+08, -1.255228633662028E+08, 1.588590653569495E+08,
2461323.500000000, A.D. 2026-Oct-10 00:00:00.0000, -4.174059269276514E+08, -1.341406724447459E+08, 1.614674734253696E+08,
2461330.500000000, A.D. 2026-Oct-17 00:00:00.0000, -4.132144708997510E+08, -1.426946130692100E+08, 1.639990133952656E+08,
2461337.500000000, A.D. 2026-Oct-24 00:00:00.0000, -4.088259371874830E+08, -1.511804822905518E+08, 1.664523249109758E+08,
2461344.500000000, A.D. 2026-Oct-31 00:00:00.0000, -4.042420115497645E+08, -1.595940865872426E+08, 1.688260722188761E+08,
2461351.500000000, A.D. 2026-Nov-07 00:00:00.0000, -3.994644619652545E+08, -1.679312431415537E+08, 1.711189446179549E+08,
2461358.500000000, A.D. 2026-Nov-14 00:00:00.0000, -3.944951379705849E+08, -1.761877803501724E+08, 1.733296569343339E+08,
2461365.500000000, A.D. 2026-Nov-21 00:00:00.0000, -3.893359711909674E+08, -1.843595368890308E+08, 1.754569502418320E+08,
2461372.500000000, A.D. 2026-Nov-28 00:00:00.0000, -3.839889780598602E+08, -1.924423623429410E+08, 1.774995926749640E+08,
2461379.500000000, A.D. 2026-Dec-05 00:00:00.0000, -3.784562611077622E+08, -2.004321200586758E+08, 1.794563799502910E+08,
2461386.500000000, A.D. 2026-Dec-12 00:00:00.0000, -3.727400086540896E+08, -2.083246891113752E+08, 1.813261358361560E+08,
2461393.500000000, A.D. 2026-Dec-19 00:00:00.0000, -3.668424947869043E+08, -2.161159653787487E+08, 1.831077127442468E+08,
2461400.500000000, A.D. 2026-Dec-26 00:00:00.0000, -3.607660797704232E+08, -2.238018625931754E+08, 1.847999923850256E+08,
2461407.500000000, A.D. 2027-Jan-02 00:00:00.0000, -3.545132106028779E+08, -2.313783135652289E+08, 1.864018864467071E+08,
2461414.500000000, A.D. 2027-Jan-09 00:00:00.0000, -3.480864216068388E+08, -2.388412715607828E+08, 1.879123372895886E+08,
2461421.500000000, A.D. 2027-Jan-16 00:00:00.0000, -3.414883350160176E+08, -2.461867118248464E+08, 1.893303186539481E+08,
2461428.500000000, A.D. 2027-Jan-23 00:00:00.0000, -3.347216615120497E+08, -2.534106332935417E+08, 1.906548363745854E+08,
2461435.500000000, A.D. 2027-Jan-30 00:00:00.0000, -3.277892005231160E+08, -2.605090605436109E+08, 1.918849290812684E+08,
2461442.500000000, A.D. 2027-Feb-06 00:00:00.0000, -3.206938398592091E+08, -2.674780456406174E+08, 1.930196688740222E+08,
2461449.500000000, A.D. 2027-Feb-13 00:00:00.0000, -3.134385551434050E+08, -2.743136686667910E+08, 1.940581621145939E+08,
2461456.500000000, A.D. 2027-Feb-20 00:00:00.0000, -3.060264114010028E+08, -2.810120377201238E+08, 1.949995504848499E+08,
2461463.500000000, A.D. 2027-Feb-27 00:00:00.0000, -2.984605654080427E+08, -2.875692916000479E+08, 1.958430119202529E+08,
2461470.500000000, A.D. 2027-Mar-06 00:00:00.0000, -2.907442657786092E+08, -2.939816032591305E+08, 1.965877612982570E+08,
2461477.500000000, A.D. 2027-Mar-13 00:00:00.0000, -2.828808523880270E+08, -3.002451819727974E+08, 1.972330511952425E+08,
2461484.500000000, A.D. 2027-Mar-20 00:00:00.0000, -2.748737562576778E+08, -3.063562750633886E+08, 1.977781727467501E+08,
2461491.500000000, A.D. 2027-Mar-27 00:00:00.0000, -2.667264996959254E+08, -3.123111697295609E+08, 1.982224565476462E+08,
2461498.500000000, A.D. 2027-Apr-03 00:00:00.0000, -2.584426964892458E+08, -3.181061950306884E+08, 1.985652735702565E+08,
2461505.500000000, A.D. 2027-Apr-10 00:00:00.0000, -2.500260520795753E+08, -3.237377240044729E+08, 1.988060360972582E+08,
2461512.500000000, A.D. 2027-Apr-17 00:00:00.0000, -2.414803637029018E+08, -3.292021759326727E+08, 1.989441986661474E+08,
2461519.500000000, A.D. 2027-Apr-24 00:00:00.0000, -2.328095204065811E+08, -3.344960188173584E+08, 1.989792590123678E+08,
2461526.500000000, A.D. 2027-May-01 00:00:00.0000, -2.240175026420704E+08, -3.396157720400161E+08, 1.989107589849357E+08,
2461533.500000000, A.D. 2027-May-08 00:00:00.0000, -2.151083811217591E+08, -3.445580084550696E+08, 1.987382854662720E+08,
2461540.500000000, A.D. 2027-May-15 00:00:00.0000, -2.060863164324185E+08, -3.493193549640259E+08, 1.984614715096681E+08,
2461547.500000000, A.D. 2027-May-22 00:00:00.0000, -1.969555609640300E+08, -3.538964941616790E+08, 1.980799976239468E+08,
2461554.500000000, A.D. 2027-May-29 00:00:00.0000, -1.877204597929787E+08, -3.582861685234008E+08, 1.975935927763596E+08,
2461561.500000000, A.D. 2027-Jun-05 00:00:00.0000, -1.783854496303666E+08, -3.624851840022919E+08, 1.970020352879314E+08,
2461568.500000000, A.D. 2027-Jun-12 00:00:00.0000, -1.689550578384544E+08, -3.664904126038578E+08, 1.963051538394514E+08,
2461575.500000000, A.D. 2027-Jun-19 00:00:00.0000, -1.594339018412281E+08, -3.702987948722908E+08, 1.955028285403469E+08,
2461582.500000000, A.D. 2027-Jun-26 00:00:00.0000, -1.498266886442994E+08, -3.739073425488166E+08, 1.945949920117480E+08,
2461589.500000000, A.D. 2027-Jul-03 00:00:00.0000, -1.401382143265170E+08, -3.773131413930674E+08, 1.935816304708648E+08,
2461596.500000000, A.D. 2027-Jul-10 00:00:00.0000, -1.303733634611034E+08, -3.805133541579581E+08, 1.924627848128990E+08,
2461603.500000000, A.D. 2027-Jul-17 00:00:00.0000, -1.205371084249048E+08, -3.835052237557927E+08, 1.912385516829379E+08,
2461610.500000000, A.D. 2027-Jul-24 00:00:00.0000, -1.106345084344450E+08, -3.862860766768107E+08, 1.899090845170639E+08,
2461617.500000000, A.D. 2027-Jul-31 00:00:00.0000, -1.006707078925125E+08, -3.888533264226260E+08, 1.884745945325280E+08,
2461624.500000000, A.D. 2027-Aug-07 00:00:00.0000, -9.065093424116440E+07, -3.912044758002465E+08, 1.869353517773551E+08,
2461631.500000000, A.D. 2027-Aug-14 00:00:00.0000, -8.058049761710218E+07, -3.933371183266324E+08, 1.852916864267336E+08,
2461638.500000000, A.D. 2027-Aug-21 00:00:00.0000, -7.046479168521702E+07, -3.952489421044942E+08, 1.835439899912268E+08,
2461645.500000000, A.D. 2027-Aug-28 00:00:00.0000, -6.030929221325606E+07, -3.969377349634033E+08, 1.816927162180097E+08,
2461652.500000000, A.D. 2027-Sep-04 00:00:00.0000, -5.011955456363067E+07, -3.984013883608791E+08, 1.797383819956984E+08,
2461659.500000000, A.D. 2027-Sep-11 00:00:00.0000, -3.990121149279128E+07, -3.996379007006708E+08, 1.776815683336639E+08,
2461666.500000000, A.D. 2027-Sep-18 00:00:00.0000, -2.965997111997147E+07, -4.006453807136366E+08, 1.755229213469199E+08,
2461673.500000000, A.D. 2027-Sep-25 00:00:00.0000, -1.940161483132963E+07, -4.014220509735603E+08, 1.732631532154253E+08,
2461680.500000000, A.D. 2027-Oct-02 00:00:00.0000, -9.131995039190590E+06, -4.019662515146868E+08, 1.709030431092699E+08,
2461687.500000000, A.D. 2027-Oct-09 00:00:00.0000, 1.142967231341298E+06, -4.022764435496280E+08, 1.684434380736267E+08,
2461694.500000000, A.D. 2027-Oct-16 00:00:00.0000, 1.141728499642698E+07, -4.023512133365304E+08, 1.658852538598171E+08,
2461701.500000000, A.D. 2027-Oct-23 00:00:00.0000, 2.168490847211714E+07, -4.021892761948634E+08, 1.632294756748096E+08,
2461708.500000000, A.D. 2027-Oct-30 00:00:00.0000, 3.193972911541183E+07, -4.017894800524776E+08, 1.604771588607496E+08,
2461715.500000000, A.D. 2027-Nov-06 00:00:00.0000, 4.217558338683511E+07, -4.011508073875201E+08, 1.576294296984034E+08,
2461722.500000000, A.D. 2027-Nov-13 00:00:00.0000, 5.238625425200545E+07, -4.002723776313869E+08, 1.546874863405199E+08,
2461729.500000000, A.D. 2027-Nov-20 00:00:00.0000, 6.256547332860972E+07, -3.991534522081096E+08, 1.516525994239917E+08,
2461736.500000000, A.D. 2027-Nov-27 00:00:00.0000, 7.270692530147900E+07, -3.977934392366229E+08, 1.485261124502845E+08,
2461743.500000000, A.D. 2027-Dec-04 00:00:00.0000, 8.280425258619128E+07, -3.961918969736591E+08, 1.453094421912727E+08,
2461750.500000000, A.D. 2027-Dec-11 00:00:00.0000, 9.285105969313771E+07, -3.943485369527435E+08, 1.420040790892836E+08,
2461757.500000000, A.D. 2027-Dec-18 00:00:00.0000, 1.028409175681021E+08, -3.922632271494607E+08, 1.386115875952360E+08,
2461764.500000000, A.D. 2027-Dec-25 00:00:00.0000, 1.127673680612364E+08, -3.899359951653762E+08, 1.351336064268383E+08,
2461771.500000000, A.D. 2028-Jan-01 00:00:00.0000, 1.226239285651462E+08, -3.873670314051569E+08, 1.315718487395010E+08,
$$EOE